[{"OBJECT_NAME":"FLOCK 4G-25","OBJECT_ID":"2025-009AP","EPOCH":"2026-03-09T17:53:50.680608","MEAN_MOTION":15.27424196,"ECCENTRICITY":8.276e-5,"INCLINATION":97.4049,"RA_OF_ASC_NODE":151.4141,"ARG_OF_PERICENTER":316.3151,"MEAN_ANOMALY":43.8023,"EPHEMERIS_TYPE":0,"CLASSIFICATION_TYPE":"U","NORAD_CAT_ID":62646,"ELEMENT_SET_NO":999,"REV_AT_EPOCH":6373,"BSTAR":0.00038902475,"MEAN_MOTION_DOT":0.00010373,"MEAN_MOTION_DDOT":0},{"OBJECT_NAME":"STARLINK-36423","OBJECT_ID":"2026-008D","EPOCH":"2026-03-09T10:23:06.144864","MEAN_MOTION":15.27585154,"ECCENTRICITY":0.00016452,"INCLINATION":42.9989,"RA_OF_ASC_NODE":206.6197,"ARG_OF_PERICENTER":267.6574,"MEAN_ANOMALY":92.4089,"EPHEMERIS_TYPE":0,"CLASSIFICATION_TYPE":"U","NORAD_CAT_ID":67448,"ELEMENT_SET_NO":999,"REV_AT_EPOCH":953,"BSTAR":0.0009336997,"MEAN_MOTION_DOT":0.00025525,"MEAN_MOTION_DDOT":0}]
